[{"OBJECT_NAME":"STARLINK-36797","OBJECT_ID":"2026-032U","EPOCH":"2026-03-09T22:05:59.007840","MEAN_MOTION":15.75258899,"ECCENTRICITY":0.00010846,"INCLINATION":97.2846,"RA_OF_ASC_NODE":255.4764,"ARG_OF_PERICENTER":71.4313,"MEAN_ANOMALY":288.707,"EPHEMERIS_TYPE":0,"CLASSIFICATION_TYPE":"U","NORAD_CAT_ID":67815,"ELEMENT_SET_NO":999,"REV_AT_EPOCH":482,"BSTAR":0.0014318596,"MEAN_MOTION_DOT":0.00219679,"MEAN_MOTION_DDOT":0},{"OBJECT_NAME":"ATLAS CENTAUR R\/B","OBJECT_ID":"1981-119B","EPOCH":"2026-03-09T19:42:18.990432","MEAN_MOTION":10.34213639,"ECCENTRICITY":0.25190811,"INCLINATION":23.5147,"RA_OF_ASC_NODE":116.0502,"ARG_OF_PERICENTER":113.2775,"MEAN_ANOMALY":275.1408,"EPHEMERIS_TYPE":0,"CLASSIFICATION_TYPE":"U","NORAD_CAT_ID":13007,"ELEMENT_SET_NO":999,"REV_AT_EPOCH":17922,"BSTAR":0.0010537322,"MEAN_MOTION_DOT":0.00029029,"MEAN_MOTION_DDOT":-1.839179e-6}]
